IRIDIUM 126             
1 42809U 17039G   25032.48975526 -.00000001  00000+0 -75453-5 0  9992
2 42809  86.3986 202.8505 0001935  99.0966 261.0448 14.34217769398182
IRIDIUM 124             
1 42810U 17039H   25032.76106135  .00001056  00000+0  30798-3 0  9997
2 42810  86.4536 139.5917 0002370  90.0615 270.0857 14.43273149402932
IRIDIUM 128             
1 42811U 17039J   25032.62002238  .00000034  00000+0  52071-5 0  9997
2 42811  86.3937 234.2906 0002487  91.3036 268.8445 14.34217314398235
IRIDIUM 121             
1 42812U 17039K   25032.85762663  .00000238  00000+0  77862-4 0  9998
2 42812  86.3981 202.7202 0002076  89.8047 270.3386 14.34217367398119
IRIDIUM 133             
1 42955U 17061A   25032.51220718  .00000193  00000+0  61871-4 0  9997
2 42955  86.3942 234.4411 0002158  92.2534 267.8909 14.34217149383011
IRIDIUM 100             
1 42956U 17061B   25032.50586297  .00000185  00000+0  58993-4 0  9996
2 42956  86.3941 234.3742 0002161  92.6056 267.5387 14.34218790383014
IRIDIUM 122             
1 42957U 17061C   25032.54391806  .00000136  00000+0  41637-4 0  9994
2 42957  86.3942 234.3572 0002052  97.9366 262.2062 14.34217863383021
IRIDIUM 129             
1 42958U 17061D   25032.49952069  .00000162  00000+0  50850-4 0  9999
2 42958  86.3942 234.4373 0001640  87.5536 272.5848 14.34218431383037
